#dV2023  1  6 22  0  0.00000000    1682       CTS   FIT  GFZ
## 2243 511200.00000000    30.00000000 59950 0.9166666666667
+    1   L64  0  0  0  0  0  0  0  0  0  0  0  0  0  0  0  0
+          0  0  0  0  0  0  0  0  0  0  0  0  0  0  0  0  0
+          0  0  0  0  0  0  0  0  0  0  0  0  0  0  0  0  0
+          0  0  0  0  0  0  0  0  0  0  0  0  0  0  0  0  0
+          0  0  0  0  0  0  0  0  0  0  0  0  0  0  0  0  0
++         0  0  0  0  0  0  0  0  0  0  0  0  0  0  0  0  0
++         0  0  0  0  0  0  0  0  0  0  0  0  0  0  0  0  0
++         0  0  0  0  0  0  0  0  0  0  0  0  0  0  0  0  0
++         0  0  0  0  0  0  0  0  0  0  0  0  0  0  0  0  0
++         0  0  0  0  0  0  0  0  0  0  0  0  0  0  0  0  0
%c L  cc GPS ccc cccc cccc cccc cccc ccccc ccccc ccccc ccccc
%c cc cc ccc ccc cccc cccc cccc cccc ccccc ccccc ccccc ccccc
%f  0.0000000  0.000000000  0.00000000000  0.000000000000000
%f  0.0000000  0.000000000  0.00000000000  0.000000000000000
%i    0    0    0    0      0      0      0      0         0
%i    0    0    0    0      0      0      0      0         0
/* CCCCCCCCCCCCCCCCCCCCCCCCCCCCCCCCCCCCCCCCCCCCCCCCCCCCCCCCCCCCCCCCCCCCCCCCCCCCC
/* C                             GFZ RSO-ORBIT                                 C
/* C DOI: https://doi.org/10.5880/GFZ_ORBIT/RSO/L64_G_v02                      C
/* C                                                                           C
/* C DORIS        RMS: not applicable                                          C
/* C GNSS-E Code  RMS: not applicable                                          C
/* C GNSS-E Phase RMS: not applicable                                          C
/* C GNSS-G Code  RMS:  49.845 [cm]   Obs.acc.:     14490 Obs.eli.:      1100  C
/* C GNSS-G Phase RMS:   3.975 [mm]   Obs.acc.:     14490 Obs.eli.:      1100  C
/* C SLR          RMS:   1.172 [cm]   Obs.acc.:        25 Obs.eli.:         0  C
/* C                                                                           C
/* CCCCCCCCCCCCCCCCCCCCCCCCCCCCCCCCCCCCCCCCCCCCCCCCCCCCCCCCCCCCCCCCCCCCCCCCCCCCC
*  2023  1  7  7 46 30.00000000
PL64   -446.175505    138.753272   6852.783898  22630.970702
VL64  64273.805334 -40289.436301   5039.366383 999999.999999
*  2023  1  7  7 47  0.00000000
PL64   -253.409871     17.409281   6864.117007  22631.430353
VL64  64224.652061 -40599.132278   2515.375533 999999.999999
*  2023  1  7  7 47 30.00000000
PL64    -60.899241   -104.796653   6867.873543  22631.889956
VL64  64103.853083 -40863.960614    -11.222693 999999.999999
*  2023  1  7  7 48  0.00000000
PL64    131.141938   -227.729015   6864.049822  22632.349470
VL64  63911.747262 -41083.323048  -2537.670062 999999.999999
*  2023  1  7  7 48 30.00000000
PL64    322.500350   -351.250575   6852.650432  22632.809058
VL64  63648.751672 -41256.671262  -5061.208554 999999.999999
*  2023  1  7  7 49  0.00000000
PL64    512.964050   -475.222530   6833.688234  22633.268506
VL64  63315.361271 -41383.508096  -7579.083604 999999.999999
*  2023  1  7  7 49 30.00000000
PL64    702.322692   -599.504666   6807.184342  22633.727912
VL64  62912.147751 -41463.388719 -10088.547485 999999.999999
*  2023  1  7  7 50  0.00000000
PL64    890.367758   -723.955512   6773.168099  22634.187294
VL64  62439.757651 -41495.921234 -12586.861963 999999.999999
*  2023  1  7  7 50 30.00000000
PL64   1076.892780   -848.432504   6731.677047  22634.646580
VL64  61898.912016 -41480.766341 -15071.299616 999999.999999
*  2023  1  7  7 51  0.00000000
PL64   1261.693568   -972.792135   6682.756892  22635.105838
VL64  61290.407047 -41417.637715 -17539.146684 999999.999999
*  2023  1  7  7 51 30.00000000
PL64   1444.568430  -1096.890123   6626.461455  22635.565022
VL64  60615.112189 -41306.303610 -19987.706791 999999.999999
*  2023  1  7  7 52  0.00000000
PL64   1625.318390  -1220.581573   6562.852616  22636.024231
VL64  59873.968002 -41146.588109 -22414.303340 999999.999999
*  2023  1  7  7 52 30.00000000
PL64   1803.747398  -1343.721148   6492.000254  22636.483573
VL64  59067.985485 -40938.371529 -24816.281557 999999.999999
*  2023  1  7  7 53  0.00000000
PL64   1979.662543  -1466.163237   6413.982176  22636.942938
VL64  58198.245418 -40681.591208 -27191.010869 999999.999999
*  2023  1  7  7 53 30.00000000
PL64   2152.874260  -1587.762125   6328.884042  22637.402335
VL64  57265.897395 -40376.242061 -29535.887729 999999.999999
*  2023  1  7  7 54  0.00000000
PL64   2323.196535  -1708.372171   6236.799277  22637.861643
VL64  56272.159435 -40022.376744 -31848.338796 999999.999999
*  2023  1  7  7 54 30.00000000
PL64   2490.447109  -1827.847978   6137.828975  22638.320986
VL64  55218.316588 -39620.105661 -34125.825233 999999.999999
*  2023  1  7  7 55  0.00000000
PL64   2654.447677  -1946.044565   6032.081793  22638.780263
VL64  54105.718104 -39169.596688 -36365.845424 999999.999999
*  2023  1  7  7 55 30.00000000
PL64   2815.024072  -2062.817544   5919.673833  22639.239021
VL64  52935.775478 -38671.075681 -38565.936320 999999.999999
*  2023  1  7  7 56  0.00000000
PL64   2972.006456  -2178.023290   5800.728528  22639.697624
VL64  51709.960971 -38124.827208 -40723.675512 999999.999999
*  2023  1  7  7 56 30.00000000
PL64   3125.229496  -2291.519121   5675.376513  22640.156463
VL64  50429.806481 -37531.194607 -42836.683425 999999.999999
*  2023  1  7  7 57  0.00000000
PL64   3274.532543  -2403.163474   5543.755495  22640.615392
VL64  49096.902794 -36890.580021 -44902.625982 999999.999999
*  2023  1  7  7 57 30.00000000
PL64   3419.759810  -2512.816078   5406.010109  22641.074460
VL64  47712.898051 -36203.444627 -46919.218239 999999.999999
*  2023  1  7  7 58  0.00000000
PL64   3560.760532  -2620.338139   5262.291770  22641.533509
VL64  46279.494900 -35470.308400 -48884.227784 999999.999999
*  2023  1  7  7 58 30.00000000
PL64   3697.389134  -2725.592504   5112.758505  22641.992954
VL64  44798.447957 -34691.749601 -50795.476840 999999.999999
*  2023  1  7  7 59  0.00000000
PL64   3829.505379  -2828.443848   4957.574792  22642.452381
VL64  43271.562082 -33868.404516 -52650.844215 999999.999999
*  2023  1  7  7 59 30.00000000
PL64   3956.974519  -2928.758837   4796.911386  22642.911682
VL64  41700.690607 -33000.967296 -54448.267455 999999.999999
*  2023  1  7  8  0  0.00000000
PL64   4079.667436  -3026.406310   4630.945135  22643.370868
VL64  40087.733706 -32090.190012 -56185.745090 999999.999999
*  2023  1  7  8  0 30.00000000
PL64   4197.460779  -3121.257445   4459.858801  22643.830046
VL64  38434.636399 -31136.882454 -57861.339655 999999.999999
*  2023  1  7  8  1  0.00000000
PL64   4310.237099  -3213.185939   4283.840853  22644.288811
VL64  36743.385627 -30141.911200 -59473.180463 999999.999999
*  2023  1  7  8  1 30.00000000
PL64   4417.884965  -3302.068169   4103.085276  22644.747530
VL64  35016.007595 -29106.198634 -61019.464985 999999.999999
*  2023  1  7  8  2  0.00000000
PL64   4520.299081  -3387.783365   3917.791355  22645.206457
VL64  33254.566633 -28030.722644 -62498.460295 999999.999999
*  2023  1  7  8  2 30.00000000
PL64   4617.380402  -3470.213773   3728.163467  22645.665548
VL64  31461.164063 -26916.516086 -63908.506235 999999.999999
*  2023  1  7  8  3  0.00000000
PL64   4709.036238  -3549.244816   3534.410854  22646.124765
VL64  29637.935396 -25764.665276 -65248.019029 999999.999999
*  2023  1  7  8  3 30.00000000
PL64   4795.180353  -3624.765257   3336.747393  22646.584093
VL64  27787.046523 -24576.308415 -66515.493669 999999.999999
*  2023  1  7  8  4  0.00000000
PL64   4875.733049  -3696.667348   3135.391357  22647.043428
VL64  25910.690210 -23352.634486 -67709.505427 999999.999999
*  2023  1  7  8  4 30.00000000
PL64   4950.621243  -3764.846983   2930.565169  22647.502789
VL64  24011.083238 -22094.881995 -68828.711131 999999.999999
*  2023  1  7  8  5  0.00000000
PL64   5019.778535  -3829.203846   2722.495160  22647.962075
VL64  22090.463805 -20804.337607 -69871.850246 999999.999999
*  2023  1  7  8  5 30.00000000
PL64   5083.145270  -3889.641550   2511.411314  22648.421256
VL64  20151.088992 -19482.335368 -70837.745830 999999.999999
*  2023  1  7  8  6  0.00000000
PL64   5140.668587  -3946.067780   2297.547023  22648.880532
VL64  18195.232514 -18130.256227 -71725.306193 999999.999999
*  2023  1  7  8  6 30.00000000
PL64   5192.302471  -3998.394435   2081.138819  22649.339664
VL64  16225.182251 -16749.526601 -72533.527228 999999.999999
*  2023  1  7  8  7  0.00000000
PL64   5238.007786  -4046.537758   1862.426117  22649.798852
VL64  14243.237421 -15341.616334 -73261.494114 999999.999999
*  2023  1  7  8  7 30.00000000
PL64   5277.752308  -4090.418462   1641.650936  22650.257964
VL64  12251.705821 -13908.036577 -73908.382861 999999.999999
*  2023  1  7  8  8  0.00000000
PL64   5311.510747  -4129.961856   1419.057633  22650.717310
VL64  10252.900391 -12450.337084 -74473.461352 999999.999999
*  2023  1  7  8  8 30.00000000
PL64   5339.264752  -4165.097950   1194.892622  22651.176509
VL64   8249.136139 -10970.104289 -74956.088667 999999.999999
*  2023  1  7  8  9  0.00000000
PL64   5361.002920  -4195.761570    969.404105  22651.635570
VL64   6242.728636  -9468.961225 -75355.715224 999999.999999
*  2023  1  7  8  9 30.00000000
PL64   5376.720794  -4221.892465    742.841790  22652.094773
VL64   4235.991517  -7948.566890 -75671.885563 999999.999999
*  2023  1  7  8 10  0.00000000
PL64   5386.420847  -4243.435412    515.456610  22652.553987
VL64   2231.232060  -6410.613445 -75904.240154 999999.999999
*  2023  1  7  8 10 30.00000000
PL64   5390.112462  -4260.340308    287.500432  22653.013189
VL64    230.748142  -4856.823219 -76052.515148 999999.999999
*  2023  1  7  8 11  0.00000000
PL64   5387.811899  -4272.562263     59.225770  22653.472334
VL64  -1763.173950  -3288.946320 -76116.543158 999999.999999
*  2023  1  7  8 11 30.00000000
PL64   5379.542252  -4280.061673   -169.114506  22653.931456
VL64  -3748.263303  -1708.757438 -76096.253786 999999.999999
EOF
